[{"OBJECT_NAME":"STARLINK-5532","OBJECT_ID":"2023-028V","EPOCH":"2026-03-09T21:04:35.078592","MEAN_MOTION":14.98337029,"ECCENTRICITY":0.00031323,"INCLINATION":69.9992,"RA_OF_ASC_NODE":243.7677,"ARG_OF_PERICENTER":266.5125,"MEAN_ANOMALY":93.5676,"EPHEMERIS_TYPE":0,"CLASSIFICATION_TYPE":"U","NORAD_CAT_ID":55760,"ELEMENT_SET_NO":999,"REV_AT_EPOCH":16607,"BSTAR":9.7835641e-5,"MEAN_MOTION_DOT":1.075e-5,"MEAN_MOTION_DDOT":0},{"OBJECT_NAME":"BRO-14","OBJECT_ID":"2024-149CM","EPOCH":"2026-03-09T19:21:31.034016","MEAN_MOTION":14.95926897,"ECCENTRICITY":0.000793,"INCLINATION":97.6931,"RA_OF_ASC_NODE":146.3614,"ARG_OF_PERICENTER":74.9836,"MEAN_ANOMALY":285.2263,"EPHEMERIS_TYPE":0,"CLASSIFICATION_TYPE":"U","NORAD_CAT_ID":60551,"ELEMENT_SET_NO":999,"REV_AT_EPOCH":8513,"BSTAR":0.00014547278,"MEAN_MOTION_DOT":1.572e-5,"MEAN_MOTION_DDOT":0}]
